Borough,Market Name,Street Address,Latitude,Longitude,Days of Operation,Hours of Operations,Season Dates,Accepts EBT,Open Year-Round,Stellar Cooking Demonstrations,Food Activities for Kids,Location Point
Manhattan,Inwood Park Greenmarket,Isham St bet Seaman & Cooper,40.86900872,-73.92032044,Open year-round,,Farmers Markets and Food Boxes,TRUE,TRUE,FALSE,Farmers Markets,"(40.8690087167, -73.9203204394)"
Manhattan,82nd Street Greenmarket,82nd St bet 1st & York Aves,40.77344836,-73.94895357,Open year-round,,Farmers Markets and Food Boxes,TRUE,TRUE,FALSE,Farmers Markets,"(40.7734483572999, -73.9489535725)"
Manhattan,1 Centre Street,1 Centre Street,40.7130276,-74.0037529,Open year-round,,Farmers Markets and Food Boxes,TRUE,TRUE,FALSE,Food Boxes,"(40.7130276, -74.0037529)"
Manhattan,125th Street Farmers Market,125th St & Adam Clayton Powell Jr Blvd,40.80898137,-73.94832667,Market open dates: 6/13/2017 to 11/21/2017,06/13/2017,Farmers Markets and Food Boxes,TRUE,FALSE,FALSE,Farmers Markets,"(40.8089813746999, -73.9483266703999)"
Bronx,170 Farm Stand,170th St & Townsend Ave,40.840095,-73.916827,Market open dates: 7/5/2017 to 11/22/2017,07/05/2017,Farmers Markets and Food Boxes,TRUE,FALSE,FALSE,Farmers Markets,"(40.840095, -73.916827)"
Manhattan,175th Street Greenmarket,175th St bet Wadsworth Ave & Broadway,40.84595574,-73.93781267,Market open dates: 6/29/2017 to 11/30/2017,06/29/2017,Farmers Markets and Food Boxes,TRUE,FALSE,TRUE,Farmers Markets,"(40.8459557405, -73.9378126725)"
Manhattan,57th Street Greenmarket,57th St & 9th Ave,40.76792538,-73.98571616,Market open dates: 5/17/2017 to 12/23/2017,05/17/2017,Farmers Markets and Food Boxes,TRUE,FALSE,FALSE,Farmers Markets,"(40.7679253828, -73.9857161617999)"
Manhattan,79th Street Greenmarket,Columbus Ave bet 78th & 81st Sts,40.78325007,-73.97454056,Open year-round,,Farmers Markets and Food Boxes,TRUE,TRUE,FALSE,Farmers Markets,"(40.7832500724, -73.9745405583999)"
Manhattan,92nd Street Greenmarket,92nd St & 1st Ave,40.78132447,-73.94613107,Market open dates: 6/25/2017 to 11/19/2017,06/25/2017,Farmers Markets and Food Boxes,TRUE,FALSE,FALSE,Farmers Markets,"(40.7813244698999, -73.9461310652)"
Manhattan,97th Street Greenmarket,97th St bet Columbus & Amsterdam Aves,40.79474389,-73.96987361,Open year-round,,Farmers Markets and Food Boxes,TRUE,TRUE,TRUE,Farmers Markets,"(40.7947438866, -73.9698736061999)"
Manhattan,Abingdon Square Greenmarket,W 12th St & 8th Ave,40.73755554,-74.0048296,Open year-round,,Farmers Markets and Food Boxes,TRUE,TRUE,FALSE,Farmers Markets,"(40.7375555403, -74.0048296015)"
Queens,Astoria Greenmarket,14th St bet 31st Ave & 31st Rd,40.76826578,-73.93202594,Market open dates: 7/5/2017 to 11/22/2017,07/05/2017,Farmers Markets and Food Boxes,TRUE,FALSE,FALSE,Farmers Markets,"(40.7682657793999, -73.9320259394)"
Brooklyn,Bartel-Pritchard Square Greenmarket,Prospect Park W & 15th St,40.66096396,-73.98020639,"Market open dates (Sundays): 5/13/2017 to 11/18/2017

Open year-round (Wednesdays only)",,Farmers Markets and Food Boxes,TRUE,TRUE,FALSE,Farmers Markets,"(40.6609639628999, -73.9802063949999)"
Brooklyn,Bay Ridge Greenmarket,95th St & 3 Ave,40.61728571,-74.03358994,Market open dates: 5/13/2017 to 11/18/2017,05/13/2017,Farmers Markets and Food Boxes,TRUE,FALSE,FALSE,Farmers Markets,"(40.6172857112999, -74.0335899405999)"
Bronx,Bella Vista Health Center,890 Hunts Point Ave,40.8193281,-73.8893146,Open dates: 7/5/2017 to 11/22/2017,07/05/2017,Farmers Markets and Food Boxes,TRUE,FALSE,FALSE,Food Boxes,"(40.8193281, -73.8893145999999)"
Manhattan,Bellevue Hospital,462 1st Avenue,40.739217,-73.9754976,Open year-round,,Farmers Markets and Food Boxes,TRUE,TRUE,FALSE,Food Boxes,"(40.739217, -73.9754975999999)"
Brooklyn,Bensonhurst Greenmarket,81St & 18 Ave,40.60966683,-73.99975579,Market open dates: 6/4/2017 to 11/19/2017,06/04/2017,Farmers Markets and Food Boxes,TRUE,FALSE,TRUE,Farmers Markets,"(40.6096668344999, -73.9997557895)"
Bronx,Bissel Gardens Farmers Market,Baychester Ave & 241st St,40.90152793,-73.84693885,Market open dates: 7/9/2017 to 11/19/2017,07/09/2017,Farmers Markets and Food Boxes,FALSE,FALSE,FALSE,Farmers Markets,"(40.901527926, -73.846938851)"
Brooklyn,Boro Park Greenmarket,14th Ave bet 49th & 50th Sts,40.63370403,-73.98991701,Market open dates: 7/6/2017 to 11/21/2017,07/06/2017,Farmers Markets and Food Boxes,TRUE,FALSE,FALSE,Farmers Markets,"(40.6337040262, -73.9899170088999)"
Manhattan,Bowling Green Greenmarket,Broadway & Battery Pl.,40.70455726,-74.01429119,Open year-round,,Farmers Markets and Food Boxes,TRUE,TRUE,FALSE,Farmers Markets,"(40.704557258, -74.0142911884999)"
Queens,Ditmars Park Youthmarket,Steinway St bet Ditmars Blvd & 23rd Ave,40.77286145,-73.90606247,Market open dates: 6/3/2017 to 11/18/2017,06/03/2017,Farmers Markets and Food Boxes,TRUE,FALSE,FALSE,Farmers Markets,"(40.7728614473, -73.9060624715999)"
Manhattan,Broadway French Market,Broadway bet 35th & 36th Sts,40.75099661,-73.98774302,Market open dates: 4/5/2017 to 10/27/2017,04/05/2017,Farmers Markets and Food Boxes,FALSE,FALSE,FALSE,Farmers Markets,"(40.7509966119, -73.9877430212)"
Bronx,Bronx Borough Hall Greenmarket,Grand Concourse bet 161st & 162nd Sts,40.82772964,-73.92223437,Market open dates: 6/6/2017 to 11/28/2017,06/06/2017,Farmers Markets and Food Boxes,TRUE,FALSE,TRUE,Farmers Markets,"(40.8277296369, -73.9222343718)"
Bronx,BronxWorks at McLaughlin Community Center,1130 Grand Concourse,40.8326398,-73.9187735,"Open year-round


Cooking Demonstration: July - Nov only",,Farmers Markets and Food Boxes,TRUE,TRUE,TRUE,Food Boxes,"(40.8326398, -73.9187734999999)"
Brooklyn,Brooklyn Army Terminal,140 58th Street,40.64551,-74.023895,Open dates: 7/11/2017 to 11/21/2017,07/11/2017,Farmers Markets and Food Boxes,TRUE,FALSE,FALSE,Food Boxes,"(40.64551, -74.023895)"
Brooklyn,Brooklyn Borough Hall Greenmarket,Court St & Montague St,40.69372964,-73.99045606,Open year-round,,Farmers Markets and Food Boxes,TRUE,TRUE,FALSE,Farmers Markets,"(40.6937296436, -73.9904560629999)"
Brooklyn,Brooklyn Museum Farm Stand,200 Eastern Parkway,40.67190876,-73.96337171,Market open dates: 6/15/2017 to 11/15/2017,06/15/2017,Farmers Markets and Food Boxes,TRUE,FALSE,FALSE,Farmers Markets,"(40.6719087556, -73.9633717112999)"
Brooklyn,Brownsville Pitkin Avenue Youthmarket,Pitkin Ave & Thomas Boyland St,40.66927183,-73.91355493,Market open dates: 7/8/2017 to 11/18/2017,07/08/2017,Farmers Markets and Food Boxes,TRUE,FALSE,FALSE,Farmers Markets,"(40.6692718266, -73.9135549318999)"
Brooklyn,Brownsville Rockaway Youthmarket,Rockaway & Livonia Aves,40.66256275,-73.90892112,Market open dates: 7/7/2017 to 11/17/2017,07/07/2017,Farmers Markets and Food Boxes,TRUE,FALSE,FALSE,Farmers Markets,"(40.6625627542, -73.9089211194)"
Manhattan,Bryant Park French Market,6th Ave & 42nd St,40.75507,-73.984141,Market open dates: 4/12/2017 to 10/13/2017,04/12/2017,Farmers Markets and Food Boxes,FALSE,FALSE,FALSE,Farmers Markets,"(40.75507, -73.984141)"
Brooklyn,Carroll Gardens Greenmarket,Carroll St bet Smith & Court St,40.68054952,-73.99465464,Open year-round,,Farmers Markets and Food Boxes,TRUE,TRUE,FALSE,Farmers Markets,"(40.6805495234, -73.9946546352999)"
Manhattan,Chelsea's Down to Earth Farmers Market,23rd Street bet 8th & 9th Aves,40.74530132,-73.99848932,Market open dates: 5/6/2017 to 11/18/2017,05/06/2017,Farmers Markets and Food Boxes,TRUE,FALSE,FALSE,Farmers Markets,"(40.7453013204999, -73.9984893169)"
Manhattan,Chenchita's Community Garden,112th St & Madison Ave,40.79745827,-73.94670311,Market open dates: 7/15/2017 to 11/18/2017,07/15/2017,Farmers Markets and Food Boxes,TRUE,FALSE,FALSE,Farmers Markets,"(40.797458274, -73.9467031109)"
Manhattan,City Hall Greenmarket,Broadway & Chambers St,40.71417288,-74.00631047,Market open dates: 3/3/2017 to 12/22/2017,03/03/2017,Farmers Markets and Food Boxes,TRUE,FALSE,FALSE,Farmers Markets,"(40.7141728797, -74.0063104742)"
Manhattan,Columbia University Greenmarket,Broadway & W 114th St,40.80801018,-73.96390007,Open year-round,,Farmers Markets and Food Boxes,TRUE,TRUE,FALSE,Farmers Markets,"(40.8080101811, -73.9639000735)"
Queens,Corona Greenmarket,Roosevelt Ave & 104th St,40.74987737,-73.86272726,Market open dates: 7/7/2017 to 11/17/2017,07/07/2017,Farmers Markets and Food Boxes,TRUE,FALSE,TRUE,Farmers Markets,"(40.7498773738999, -73.8627272614999)"
Brooklyn,Cortelyou Greenmarket,Cortelyou Rd & Rugby Rd,40.64083294,-73.9653021,Open year-round,,Farmers Markets and Food Boxes,TRUE,TRUE,FALSE,Farmers Markets,"(40.6408329364, -73.9653020965999)"
Queens,Cunningham Park's Down to Earth Farmers Market,Union Turnpike & 196 Pl,40.731315,-73.774049,Market open dates: 5/28/2017 to 11/19/2017,05/28/2017,Farmers Markets and Food Boxes,TRUE,FALSE,FALSE,Farmers Markets,"(40.731315, -73.774049)"
Brooklyn,Cypress Hills Youthmarket,Fulton & Richmond Sts,40.68204661,-73.87786931,Market open dates: 7/7/2017 to 11/17/2017,07/07/2017,Farmers Markets and Food Boxes,TRUE,FALSE,TRUE,Farmers Markets,"(40.6820466121999, -73.8778693147999)"
Manhattan,Dag Hammarskjold Plaza Greenmarket,E 47th St & Second Ave,40.75300739,-73.96988887,Open year-round,,Farmers Markets and Food Boxes,TRUE,TRUE,FALSE,Farmers Markets,"(40.753007394, -73.9698888707)"
Manhattan,District 5 - Ben Kallos Council Office,244 East 93rd Street,40.782447,-73.9489819,Open dates: 6/15/2017 to 11/16/2017,06/15/2017,Farmers Markets and Food Boxes,TRUE,FALSE,FALSE,Food Boxes,"(40.782447, -73.9489818999999)"
Brooklyn,DUMBO Down to Earth Farmers Market,Pearl & Water Sts,40.70313843,-73.98759106,Market open dates: 6/7/2017 to 11/15/2017,06/07/2017,Farmers Markets and Food Boxes,FALSE,FALSE,FALSE,Farmers Markets,"(40.7031384332999, -73.9875910579)"
Manhattan,East Harlem Asthma Center of Excellence,161-169 East 110th St,40.7946075,-73.9432331,Open year-round,,Farmers Markets and Food Boxes,TRUE,TRUE,FALSE,Food Boxes,"(40.7946075, -73.9432330999999)"
Brooklyn,East New York Farm Stand,New Lots Ave bet Alabama & Georgia Aves,40.6611343,-73.89469308,Market open dates: 7/5/2017 to 10/25/2017,07/05/2017,Farmers Markets and Food Boxes,TRUE,FALSE,FALSE,Farmers Markets,"(40.6611343021, -73.8946930812)"
Brooklyn,East New York Farmers Market,Schenck Ave bet New Lots & Livonia Aves,40.6658587,-73.8866906,Market open dates: 6/24/2017 to 11/25/2017,06/24/2017,Farmers Markets and Food Boxes,TRUE,FALSE,TRUE,Farmers Markets,"(40.6658587014999, -73.8866905981)"
Brooklyn,Edible Schoolyard NYC's Farm Stand at PS 216,Avenue X & East 1st St,40.5906565,-73.96929957,Market open dates: May-June & Sept-Nov only,,Farmers Markets and Food Boxes,TRUE,FALSE,FALSE,Farmers Markets,"(40.5906564996, -73.9692995709)"
Manhattan,El Barrio Youth Marqueta,116th St & Park Ave,40.7993148,-73.94323426,Market open dates: 7/6/2017 to 11/18/2017,07/06/2017,Farmers Markets and Food Boxes,TRUE,FALSE,FALSE,Farmers Markets,"(40.7993147991999, -73.9432342637)"
Queens,Elmhurst Hospital Greenmarket,41st Ave bet 80th St & 81st St,40.74589948,-73.88456233,Market open dates: 6/6/2017 to 11/21/2017,06/06/2017,Farmers Markets and Food Boxes,TRUE,FALSE,FALSE,Farmers Markets,"(40.7458994785, -73.8845623340999)"
Staten Island,Fairway Gardens Farm Stand,80 Park Hill Ave,40.617766,-74.079739,Market open dates: 6/15/2017 to 11/15/2017,06/15/2017,Farmers Markets and Food Boxes,TRUE,FALSE,FALSE,Farmers Markets,"(40.617766, -74.079739)"
Manhattan,Family Health Center of Harlem,1824 Madison Avenue,40.8018509,-73.9437621,Open dates: 7/6/2017 to 11/16/2017,07/06/2017,Farmers Markets and Food Boxes,TRUE,FALSE,FALSE,Food Boxes,"(40.8018509, -73.9437621)"
Queens,Far Rockaway Youth Market,Beach 45th St & Beach Channel Dr,40.59562006,-73.77655262,Market open dates: 6/24/2017 to 11/25/2017,06/24/2017,Farmers Markets and Food Boxes,FALSE,FALSE,FALSE,Farmers Markets,"(40.595620058, -73.7765526193999)"
Brooklyn,Flatbush Junction Youthmarket,Nostrand & Flatbush Aves,40.63289384,-73.94769921,Market open dates: 7/8/2017 to 11/18/2017,07/08/2017,Farmers Markets and Food Boxes,TRUE,FALSE,FALSE,Farmers Markets,"(40.6328938407, -73.9476992098999)"
Queens,Flushing Greenmarket,Kissena Blvd & Maple Ave,40.755925,-73.826093,Market open dates: 7/5/2017 to 11/22/2017,07/05/2017,Farmers Markets and Food Boxes,TRUE,FALSE,TRUE,Farmers Markets,"(40.755925, -73.826093)"
Bronx,Fordham Plaza Greenmarket,Park Ave bet 189th St & E Fordham Rd,40.860343,-73.891224,Market open dates: 6/7/2017 to 12/20/2017,06/07/2017,Farmers Markets and Food Boxes,TRUE,FALSE,TRUE,Farmers Markets,"(40.860343, -73.891224)"
Queens,Forest Hills Greenmarket,70th Ave & Queens Blvd,40.72188853,-73.84638618,Open year-round,,Farmers Markets and Food Boxes,TRUE,TRUE,FALSE,Farmers Markets,"(40.7218885274999, -73.8463861819)"
Brooklyn,Fort Greene Park Greenmarket,Washington Park bet DeKalb & Willoughby Aves,40.69171508,-73.97354058,Open year-round,,Farmers Markets and Food Boxes,TRUE,TRUE,FALSE,Farmers Markets,"(40.6917150824, -73.9735405829)"
Manhattan,Fort Washington Greenmarket,168th St & Fort Washington Ave,40.84216213,-73.94227971,Market open dates: 6/6/2017 to 11/21/2017,06/06/2017,Farmers Markets and Food Boxes,TRUE,FALSE,FALSE,Farmers Markets,"(40.8421621302999, -73.9422797073)"
Manhattan,Frederick Douglass House Farm Stand,101st St & Columbus Ave,40.796082,-73.965217,Market open dates: 6/15/2017 to 11/15/2017,06/15/2017,Farmers Markets and Food Boxes,FALSE,FALSE,FALSE,Farmers Markets,"(40.796082, -73.965217)"
Bronx,Friends of Van Cortlandt Park Amalgamated Housing Youth Farmstand,Orloff Ave & Gale Pl,40.88268166,-73.89010772,Market open dates: 7/12/2017 to 11/1/2017,07/12/2017,Farmers Markets and Food Boxes,TRUE,FALSE,FALSE,Farmers Markets,"(40.8826816599, -73.890107724)"
Manhattan,Gouverneur Health Youthmarket,Madison St bet Clinton & Jefferson Sts,40.71291247,-73.98692913,Market open dates: 7/6/2017 to 11/16/2017,07/06/2017,Farmers Markets and Food Boxes,TRUE,FALSE,FALSE,Farmers Markets,"(40.7129124650999, -73.9869291300999)"
Brooklyn,Graham Avenue Farmers Market,Cook St & Graham Ave,40.7023534,-73.94238272,Market open dates: 7/8/2017 to 10/28/2017,07/08/2017,Farmers Markets and Food Boxes,TRUE,FALSE,TRUE,Farmers Markets,"(40.7023534036, -73.9423827197)"
Brooklyn,Grand Army Plaza Greenmarket,Flatbush Ave & Prospect Park W,40.67242371,-73.9701927,Open year-round,,Farmers Markets and Food Boxes,TRUE,TRUE,FALSE,Farmers Markets,"(40.6724237139999, -73.9701927034)"
Manhattan,Grass Roots Farmers Market,145th St bet Edgecombe & Bradhurst Aves,40.82326784,-73.94292478,Market open dates: 7/4/2017 to 11/28/2017,07/04/2017,Farmers Markets and Food Boxes,TRUE,FALSE,TRUE,Farmers Markets,"(40.8232678445, -73.942924781)"
Brooklyn,Halsey Community Garden,462 Halsey Street,40.683169,-73.935697,Open dates: 6/3/2017 to 11/18/2017,06/03/2017,Farmers Markets and Food Boxes,TRUE,FALSE,FALSE,Food Boxes,"(40.683169, -73.935697)"
Manhattan,Hamilton Heights Green Youthmarket,Amsterdam bet 143rd & 144th Sts,40.82394844,-73.94855352,Market open dates: 6/21/2017 to 11/22/2017,06/21/2017,Farmers Markets and Food Boxes,TRUE,FALSE,FALSE,Farmers Markets,"(40.8239484385999, -73.9485535171999)"
Brooklyn,Harvest Home Clinton Hill Farmers Market,Lafayette bet Waverly & Washington Aves,40.68821896,-73.96582192,Market open dates: 6/6/2017 to 11/21/2017,06/06/2017,Farmers Markets and Food Boxes,TRUE,FALSE,FALSE,Farmers Markets,"(40.688218956, -73.9658219186)"
Brooklyn,Harvest Home Coney Island Hospital Farmers Market,Ocean Pkwy bet Ave Z & Shore Pkwy,40.58656038,-73.96616917,Market open dates: 6/14/2017 to 11/22/2017,06/14/2017,Farmers Markets and Food Boxes,TRUE,FALSE,FALSE,Farmers Markets,"(40.5865603775, -73.9661691697999)"
Bronx,Harvest Home Co-op City Farmers Market,Asch Loop & Aldrich St,40.87278628,-73.82615613,Market open dates: 7/5/2017 to 11/22/2017,07/05/2017,Farmers Markets and Food Boxes,TRUE,FALSE,FALSE,Farmers Markets,"(40.8727862821, -73.8261561324)"
Manhattan,Harvest Home East Harlem Farmers Market,104th St & 3rd Ave,40.79026109,-73.9456363,Market open dates: 7/6/2017 to 11/23/2017,07/06/2017,Farmers Markets and Food Boxes,TRUE,FALSE,FALSE,Farmers Markets,"(40.7902610919, -73.9456363032)"
Manhattan,Harvest Home East River Farmers market,1st Ave bet 108th & 109th Sts,40.79091383,-73.93913168,Market open dates: 7/6/20017 to 11/23/2017,07/06/2017,Farmers Markets and Food Boxes,TRUE,FALSE,FALSE,Farmers Markets,"(40.7909138309999, -73.9391316778)"
Manhattan,Harvest Home Harlem Hospital Farmers Market,506 Lenox Ave bet 135th & 137th Sts,40.81543807,-73.93997471,Open year-round,,Farmers Markets and Food Boxes,TRUE,TRUE,FALSE,Farmers Markets,"(40.8154380718999, -73.9399747135999)"
Bronx,Harvest Home Hunts Point Market,E 163rd St & Hunts Point Ave,40.82099409,-73.89161474,Market open dates: 7/14/2017 to 11/22/2017,07/14/2017,Farmers Markets and Food Boxes,TRUE,FALSE,FALSE,Farmers Markets,"(40.820994087, -73.8916147393999)"
Bronx,Harvest Home Jacobi Hospital Farmers Market,1400 Pelham Pkwy at Eastchester Rd,40.8574346,-73.84708009,Market open dates: 6/6/2017 to 11/24/2017,06/06/2017,Farmers Markets and Food Boxes,TRUE,FALSE,FALSE,Farmers Markets,"(40.8574345984999, -73.8470800897)"
Brooklyn,Harvest Home Kings County Hospital Farmers Market,Clarkson Ave bet E 37th & E 38th Sts,40.65583545,-73.94335635,Market open dates: 6/7/2017 to 11/22/2017,06/07/2017,Farmers Markets and Food Boxes,TRUE,FALSE,FALSE,Farmers Markets,"(40.6558354471999, -73.9433563464999)"
Manhattan,Harvest Home Lenox Ave Farmers Market,Lenox Ave bet 117th & 118th Sts,40.80309427,-73.94897343,Market open dates: 6/10/2017 to 11/18/2017,06/10/2017,Farmers Markets and Food Boxes,TRUE,FALSE,FALSE,Farmers Markets,"(40.8030942729999, -73.9489734341999)"
Manhattan,Harvest Home Metropolitan Farmers Market,99th St & 3rd Ave,40.78712766,-73.94792473,Market open dates: 6/9/2017 to 11/17/2017,06/09/2017,Farmers Markets and Food Boxes,TRUE,FALSE,FALSE,Farmers Markets,"(40.7871276636999, -73.9479247340999)"
Bronx,Harvest Home Mt. Eden Farmers Market,Mt Eden & Morris Aves,40.84276419,-73.9095888,Market open dates: 6/9/2017 to 11/23/2017,06/09/2017,Farmers Markets and Food Boxes,TRUE,FALSE,FALSE,Farmers Markets,"(40.8427641883, -73.9095888023999)"
Bronx,Harvest Home North Central Bronx Farmers Market,Mosholu Pkwy & Jerome Ave,40.87887971,-73.88567667,Market open dates: 7/14/2017 to 11/23/2017,07/14/2017,Farmers Markets and Food Boxes,TRUE,FALSE,FALSE,Farmers Markets,"(40.8788797113, -73.8856766663)"
Bronx,Harvest Home Soundview Farmers Market,Morrison Ave & Harrod Pl,40.82905437,-73.87443772,Market open dates: 6/17/2017 to 11/18/2017,06/17/2017,Farmers Markets and Food Boxes,TRUE,FALSE,FALSE,Farmers Markets,"(40.8290543708, -73.8744377184)"
Manhattan,Harvest Home West Harlem Farmers Market,Broadway bet 137th & 138th Sts,40.82138997,-73.95413402,Market open dates: 7/11/2017 to 11/21/2017,07/11/2017,Farmers Markets and Food Boxes,TRUE,FALSE,FALSE,Farmers Markets,"(40.8213899711999, -73.9541340172)"
Brooklyn,Hattie Carthan After Church Farmers Market,49 Van Buren St bet Tompkins & Throop Aves,40.6900437,-73.94355807,Market open dates: 7/30/2017 to 11/19/2017,07/30/2017,Farmers Markets and Food Boxes,TRUE,FALSE,FALSE,Farmers Markets,"(40.6900436975, -73.9435580667999)"
Brooklyn,Hattie Carthan Community Farmers Market,Marcy Ave & Clifton Pl,40.68951881,-73.94804063,Market open dates: 7/22/2017 to 11/18/2017,07/22/2017,Farmers Markets and Food Boxes,TRUE,FALSE,FALSE,Farmers Markets,"(40.6895188127, -73.9480406273)"
Staten Island,HEALTH for Youths Farm Stand,Clyde Pl bet Prospect & Harvard Aves,40.639903,-74.08953,Market open dates: 6/24/2017 to 11/25/2017,06/24/2017,Farmers Markets and Food Boxes,FALSE,FALSE,FALSE,Farmers Markets,"(40.639903, -74.08953)"
Brooklyn,High School for Public Service Youth Farm Farmers Market,600 Kingston Ave bet Rutland Rd & Winthrop St,40.65890092,-73.94245989,Market open dates: 6/21/2017 to 10/25/2017,06/21/2017,Farmers Markets and Food Boxes,TRUE,FALSE,FALSE,Farmers Markets,"(40.6589009237, -73.9424598947999)"
Manhattan,Hudson Guild Head Start,459 West 26th Street,40.7496281,-74.0022625,"Open dates: 7/11/2017 to 11/21/2017


Cooking Demonstration: July - Nov only",07/11/2017,Farmers Markets and Food Boxes,TRUE,FALSE,TRUE,Food Boxes,"(40.7496281, -74.0022625)"
Manhattan,Hudson Yards Down to Earth Farmers Market,Hudson Blvd East & W 34th Street,40.755342,-74.000517,Market open dates: 6/8/2017 to 11/16/2017,06/08/2017,Farmers Markets and Food Boxes,TRUE,FALSE,FALSE,Farmers Markets,"(40.755342, -74.000517)"
Queens,Hunters Point South,1-50 50th Avenue,40.7434526,-73.9591916,Open dates: 6/10/2017 to 11/18/2017,06/10/2017,Farmers Markets and Food Boxes,TRUE,FALSE,FALSE,Food Boxes,"(40.7434526, -73.9591916)"
Brooklyn,Inner Force Tots Learning Center,1181 East New York Ave,40.667156,-73.923209,"Open dates: 7/11/2017 to 11/24/2017


Cooking Demonstration: July - Nov only",07/11/2017,Farmers Markets and Food Boxes,TRUE,FALSE,TRUE,Food Boxes,"(40.667156, -73.923209)"
Brooklyn,Irving Square Park Youthmarket,Wilson Ave & Halsey St,40.691594,-73.909549,Market open dates: 9/1/2017 to 10/27/2017,09/01/2017,Farmers Markets and Food Boxes,TRUE,FALSE,FALSE,Farmers Markets,"(40.691594, -73.909549)"
Brooklyn,Isabahlia Farm Stand,Rockaway & Sutter Aves,40.66716393,-73.91009357,Market open dates: 6/23/2017 to 10/27/2017,06/23/2017,Farmers Markets and Food Boxes,TRUE,FALSE,FALSE,Farmers Markets,"(40.6671639278999, -73.9100935669)"
Brooklyn,Isabahlia Farm Stand Winter Market,New Lots Ave & Sackman St,40.65792927,-73.90188848,Market open dates: Nov-Dec only,11/04/2017,Farmers Markets and Food Boxes,TRUE,FALSE,FALSE,Farmers Markets,"(40.6579292691, -73.9018884807999)"
Brooklyn,Isabahlia Farmers Market,Livonia Ave bet Powell & Junius Sts,40.66366549,-73.90145111,Market open dates: 6/24/2017 to 10/28/2017,06/24/2017,Farmers Markets and Food Boxes,TRUE,FALSE,FALSE,Farmers Markets,"(40.6636654893, -73.9014511092999)"
Queens,Jackson Heights Greenmarket,34th Ave bet 77th St & 78th St,40.75334737,-73.88875792,Open year-round,,Farmers Markets and Food Boxes,TRUE,TRUE,TRUE,Farmers Markets,"(40.7533473709999, -73.8887579226)"
Queens,Jamaica's Down to Earth Farmers Market - Friday market,Parsons Blvd bet Jamaica & Archer Aves,40.70248213,-73.79992225,Market open dates: 6/16/2017 to 11/17/2017,06/16/2017,Farmers Markets and Food Boxes,TRUE,FALSE,TRUE,Farmers Markets,"(40.7024821332, -73.7999222517999)"
Queens,Jamaica's Down to Earth Farmers Market - Saturday market,160th St & Jamaica Ave,40.70375985,-73.7991502,Market open dates: 6/17/2017 to 11/18/2017,06/17/2017,Farmers Markets and Food Boxes,TRUE,FALSE,TRUE,Farmers Markets,"(40.7037598528999, -73.7991501964999)"
Brooklyn,Kensington Youthmarket,Ft. Hamilton Pkwy bet E 4th & E 5th Sts,40.64917445,-73.97660258,Market open dates: 6/3/2017 to 12/23/2017,06/03/2017,Farmers Markets and Food Boxes,TRUE,FALSE,FALSE,Farmers Markets,"(40.6491744472999, -73.976602583)"
Bronx,Kingsbridge-Riverdale Farmers Market,260 W 231st Street,40.879974,-73.907356,Market open dates: 6/11/2017 to 11/26/2017,06/11/2017,Farmers Markets and Food Boxes,FALSE,FALSE,FALSE,Farmers Markets,"(40.879974, -73.907356)"
Bronx,La Familia Verde Farmers Market,E Tremont Ave bet LaFontaine & Arthur Aves,40.84649501,-73.8943382,Market open dates: 7/11/2017 to 11/14/2017,07/11/2017,Farmers Markets and Food Boxes,TRUE,FALSE,TRUE,Farmers Markets,"(40.8464950107, -73.8943382047999)"
Bronx,"Learn It, Grow It, Eat It Youthmarket",McKinley Sq at 169th St & Boston Rd,40.83115177,-73.90016595,Market open dates: 7/5/2017 to 11/22/2017,07/05/2017,Farmers Markets and Food Boxes,TRUE,FALSE,FALSE,Farmers Markets,"(40.8311517735999, -73.9001659542)"
Manhattan,Lenox Hill Senior Center,70th Street & 1st Avenue,40.7664912,-73.9569688,Open year-round,,Farmers Markets and Food Boxes,TRUE,TRUE,FALSE,Food Boxes,"(40.7664912, -73.9569688)"
Bronx,Lincoln Hospital Greenmarket,149th St bet Park Ave & Morris Ave,40.81739612,-73.92275947,Market open dates: 6/30/2017 to 11/21/2017,06/30/2017,Farmers Markets and Food Boxes,TRUE,FALSE,FALSE,Farmers Markets,"(40.8173961245, -73.9227594665999)"
Manhattan,Lower East Side Youthmarket,Grand Ave bet Pitt & Willet Sts,40.71521773,-73.98425929,Market open dates: 6/1/2017 to 12/21/2017,06/01/2017,Farmers Markets and Food Boxes,TRUE,FALSE,FALSE,Farmers Markets,"(40.7152177309, -73.9842592931999)"
Brooklyn,Malcolm X Blvd Farmers Market,Malcolm X Blvd bet Marion & Chauncey Sts,40.68051375,-73.92857127,Market open dates: Mid July to October,,Farmers Markets and Food Boxes,TRUE,FALSE,FALSE,Farmers Markets,"(40.6805137546, -73.9285712733999)"
Brooklyn,Marcus Garvey Apartments Farm Stand,300 Chester St,40.66448525,-73.91038554,Market open dates: 6/15/2017 to 11/15/2017,06/15/2017,Farmers Markets and Food Boxes,TRUE,FALSE,FALSE,Farmers Markets,"(40.6644852514, -73.9103855393999)"
Manhattan,Marcus Garvey Mart Farmers Market,"Marcus Garvey Park, 124th St & 5th Ave",40.805901,-73.942783,Market open dates: 6/2/2017 to 12/30/2017,06/02/2017,Farmers Markets and Food Boxes,TRUE,FALSE,FALSE,Farmers Markets,"(40.805901, -73.942783)"
Brooklyn,McCarren Park Greenmarket,Union bet Driggs & N 12th St,40.71922733,-73.95247994,Open year-round,,Farmers Markets and Food Boxes,TRUE,TRUE,FALSE,Farmers Markets,"(40.7192273304999, -73.9524799378999)"
Brooklyn,McGolrick Park's Down to Earth Farmers Market,Russell St & Nassau Ave,40.72562454,-73.94449844,Market open dates: 5/7/2017 to 11/19/2017,05/07/2017,Farmers Markets and Food Boxes,TRUE,FALSE,FALSE,Farmers Markets,"(40.7256245382, -73.9444984415)"
Manhattan,Morningside Park's Down to Earth Farmers Market,110th St & Manhattan Ave,40.80116343,-73.95964893,Market open dates: 5/6/2017 to 12/30/2017,05/06/2017,Farmers Markets and Food Boxes,TRUE,FALSE,FALSE,Farmers Markets,"(40.8011634257999, -73.9596489284)"
Bronx,Mott Haven Farmers Market,139th St & St Ann's Ave,40.80751388,-73.91701657,Market open dates: 7/10/2017 to 11/13/2017,07/10/2017,Farmers Markets and Food Boxes,FALSE,FALSE,TRUE,Farmers Markets,"(40.8075138755, -73.9170165724)"
Manhattan,Mount Sinai Hospital Greenmarket,E. 99th St bet Madison Ave & Park Ave,40.78917731,-73.95274419,Market open dates: 6/14/2017 to 11/22/2017,06/14/2017,Farmers Markets and Food Boxes,TRUE,FALSE,FALSE,Farmers Markets,"(40.7891773108, -73.9527441949)"
Bronx,Norwood Youthmarket,E Gun Hill Rd & Dekalb Ave,40.88222844,-73.88045976,Market open dates: 7/6/2017 to 11/16/2017,07/06/2017,Farmers Markets and Food Boxes,TRUE,FALSE,FALSE,Farmers Markets,"(40.8822284393, -73.8804597606)"
Brooklyn,NYC Health + Hospital East New York Farmacy,2094 Pitkin Ave,40.671927,-73.895359,Market open dates: 6/15/2017 to 11/15/2017,06/15/2017,Farmers Markets and Food Boxes,TRUE,FALSE,TRUE,Farmers Markets,"(40.671927, -73.895359)"
Manhattan,Oculus Plaza Greenmarket,Church & Fulton Sts,40.7116518,-74.0106725,Market open dates: 6/20/2017 to 11/28/2017,06/20/2017,Farmers Markets and Food Boxes,TRUE,FALSE,FALSE,Farmers Markets,"(40.7116518, -74.0106725)"
Brooklyn,Park Slope's Down to Earth Farmers Market,5th Ave & 4th St,40.67220165,-73.98378638,"Market open dates (Wednesdays): 5/07/2017 to 12/24/2017

Open year-round (Sundays only)",,Farmers Markets and Food Boxes,TRUE,TRUE,FALSE,Farmers Markets,"(40.6722016451999, -73.9837863813999)"
Bronx,Parkchester Greenmarket,Westchester Ave & White Plains Rd,40.83305633,-73.86254119,Market open dates: 6/16/2017 to 11/17/2017,06/16/2017,Farmers Markets and Food Boxes,TRUE,FALSE,TRUE,Farmers Markets,"(40.8330563255, -73.8625411948)"
Brooklyn,Parkside Plaza Greenmarket,Parkside Ave & Ocean Ave,40.65489064,-73.96188178,Market open dates: 6/11/2017 to 11/19/2017,06/11/2017,Farmers Markets and Food Boxes,TRUE,FALSE,FALSE,Farmers Markets,"(40.6548906387999, -73.9618817836999)"
Brooklyn,Pitkin Verde Farmers Market,2094 Pitkin Ave & Pennsylvania Ave,40.67198493,-73.89524914,Market open dates: 7/11/2017 to 11/21/2017,07/11/2017,Farmers Markets and Food Boxes,TRUE,FALSE,FALSE,Farmers Markets,"(40.6719849254999, -73.895249135)"
Bronx,Poe Park Greenmarket,E 192 St & Grand Concourse,40.864381,-73.895027,Market open dates: 6/20/2017 to 11/28/2017,06/20/2017,Farmers Markets and Food Boxes,TRUE,FALSE,TRUE,Farmers Markets,"(40.864381, -73.895027)"
Queens,Pomonok Community-Run Farmers Market,67-09 Kissena Blvd,40.73504052,-73.81466206,"Market open dates: 7/5/2017 to 11/22/2017
https://www.facebook.com/QCHFarmersMarket/",07/05/2017,Farmers Markets and Food Boxes,TRUE,FALSE,FALSE,Farmers Markets,"(40.7350405246, -73.8146620578)"
Brooklyn,Project EATS Farmacy at the Brownsville Neighborhood Health Action Center,259 Bristol St,40.664673,-73.911085,Market open dates: 6/15/2017 to 11/15/2017,06/15/2017,Farmers Markets and Food Boxes,TRUE,FALSE,TRUE,Farmers Markets,"(40.664673, -73.911085)"
Manhattan,PS 11 Farm Market,21st St bet 8th & 9th Aves,40.74521622,-74.00226784,Market open dates: 6/7/2017 to 11/15/2017,06/07/2017,Farmers Markets and Food Boxes,TRUE,FALSE,FALSE,Farmers Markets,"(40.7452162208999, -74.0022678383)"
Manhattan,PS 57 Youthmarket,115th street & 3rd Avenue,40.797169,-73.940872,Market open dates: 7/5/2017 to 11/22/2017,07/05/2017,Farmers Markets and Food Boxes,TRUE,FALSE,FALSE,Farmers Markets,"(40.797169, -73.940872)"
Manhattan,PS 7 Farm Stand,Lexington Ave & 119th St,40.80056486,-73.94020642,Market open dates: May-June and Sep-Nov only,,Farmers Markets and Food Boxes,TRUE,FALSE,FALSE,Farmers Markets,"(40.8005648645999, -73.9402064239999)"
Brooklyn,Putnam Triangle Youthmarket,966 Fulton St,40.682312,-73.962203,Market open dates: 9/6/2017 to 10/25/2017,09/06/2017,Farmers Markets and Food Boxes,TRUE,FALSE,FALSE,Farmers Markets,"(40.682312, -73.962203)"
Staten Island,Staten Island Mall Greenmarket,Marsh Avenue & Ring Road,40.583867,-74.159757,Market open dates: 5/6/2017 to 12/23/2017,05/06/2017,Farmers Markets and Food Boxes,TRUE,FALSE,FALSE,Farmers Markets,"(40.583867, -74.159757)"
Queens,Queens Botanical Garden's Down to Earth Farmers Market,82 Dahllia Avenue,40.75186765,-73.82636341,Market open dates: 6/16/2017 to 11/17/2017,06/16/2017,Farmers Markets and Food Boxes,TRUE,FALSE,FALSE,Farmers Markets,"(40.7518676494999, -73.8263634104)"
Queens,Queens Hospital Center Farmers Market,82-68 164th St,40.71723366,-73.8036028,Market open dates: 7/6/2017 to 11/16/2017,07/06/2017,Farmers Markets and Food Boxes,FALSE,FALSE,FALSE,Farmers Markets,"(40.7172336563, -73.8036027959)"
Queens,Queens Hospital Center Farmers Market II,114-02 Guy R Brewer Blvd,40.68876005,-73.78567342,Market open dates: 7/6/2017 to 11/16/2017,07/06/2017,Farmers Markets and Food Boxes,FALSE,FALSE,FALSE,Farmers Markets,"(40.6887600482, -73.7856734232999)"
Manhattan,Rachel Mae's Market,Essex St bet Heaster & Canal Sts,40.715578,-73.989747,Market open dates: 6/1/2017 to 12/1/2017,06/01/2017,Farmers Markets and Food Boxes,FALSE,FALSE,FALSE,Farmers Markets,"(40.715578, -73.989747)"
Brooklyn,RB Bushwick Farmers Market at Maria Hernandez Park,Knickerbocker Ave & Starr St,40.70281849,-73.9253916,Market open dates: 5/20/2017 to mid Nov,05/20/2017,Farmers Markets and Food Boxes,TRUE,FALSE,TRUE,Farmers Markets,"(40.7028184891999, -73.9253915954)"
Brooklyn,RB Farmers Market at Rheingold,555 Bushwick Ave,40.699668,-73.935453,Market open dates: 5/21/2017 to 11/1/2017,05/21/2017,Farmers Markets and Food Boxes,TRUE,FALSE,TRUE,Farmers Markets,"(40.699668, -73.935453)"
Brooklyn,RB Farmers Night Market,434 Troutman Street,40.707334,-73.922078,Market open dates: 5/19/2017 to 11/24/2017,05/19/2017,Farmers Markets and Food Boxes,FALSE,FALSE,FALSE,Farmers Markets,"(40.707334, -73.922078)"
Brooklyn,Red Hook Farmers Market,580 Columbia St,40.6722352,-74.01100736,Market open dates: 6/17/2017 to 11/18/2017,06/17/2017,Farmers Markets and Food Boxes,TRUE,FALSE,TRUE,Farmers Markets,"(40.6722351977999, -74.0110073612)"
Brooklyn,Restoration Plaza Farm Stand,Fulton St & Marcy Ave,40.68013369,-73.9459251,Market open dates: 7/12/2017 to 11/22/2017,07/12/2017,Farmers Markets and Food Boxes,FALSE,FALSE,FALSE,Farmers Markets,"(40.6801336891, -73.9459251028)"
Queens,Ridgewood Youthmarket,Cypress Ave bet Myrtle & Putnam Aves,40.70037567,-73.90661902,Market open dates: 7/8/2017 to 11/18/2017,07/08/2017,Farmers Markets and Food Boxes,TRUE,FALSE,FALSE,Farmers Markets,"(40.7003756704, -73.9066190215)"
Bronx,Riverdale Y Sunday Farmers Market,Independence Ave bet 236th & 237th Sts,40.887714,-73.913255,Market open dates: 4/23/2017 to 12/3/2017,04/23/2017,Farmers Markets and Food Boxes,FALSE,FALSE,FALSE,Farmers Markets,"(40.887714, -73.913255)"
Bronx,Riverdale Youthmarket,256th St & Mosholu Ave,40.90387505,-73.90311352,Market open dates: 7/6/2017 to 10/26/2017,07/06/2017,Farmers Markets and Food Boxes,TRUE,FALSE,FALSE,Farmers Markets,"(40.9038750518, -73.9031135203999)"
Queens,Rockaway Beach Youthmarket,Beach 58th St & Beach Channel Dr,40.59450005,-73.78807882,Market open dates: 7/8/2017 to 11/18/2017,07/08/2017,Farmers Markets and Food Boxes,TRUE,FALSE,FALSE,Farmers Markets,"(40.5945000514999, -73.7880788172)"
Manhattan,Rockefeller Center Greenmarket,Rockefeller Plaza bet W 50th St & W 51st St,40.75907246,-73.97845183,Market open dates: 7/26/2017 to 9/1/2017,07/26/2017,Farmers Markets and Food Boxes,FALSE,FALSE,FALSE,Farmers Markets,"(40.7590724581, -73.9784518322999)"
Brooklyn,Saratoga Youth Market,Saratoga Ave & Fulton St,40.67858414,-73.91630091,Market open dates: 6/24/2017 to 11/25/2017,06/24/2017,Farmers Markets and Food Boxes,FALSE,FALSE,TRUE,Farmers Markets,"(40.6785841411, -73.9163009122)"
Bronx,South Bronx Farmers Market,138th St bet Willis & Alexander Aves,40.81006105,-73.92514495,Market open dates: 6/17/2017 to 11/22/2017,06/17/2017,Farmers Markets and Food Boxes,TRUE,FALSE,TRUE,Farmers Markets,"(40.8100610549999, -73.9251449498)"
Brooklyn,South Williamsburg Greenmarket,Taylor St & Lee Ave,40.70700548,-73.96136506,Market open dates: 7/6/2017 to 11/21/2017,07/06/2017,Farmers Markets and Food Boxes,TRUE,FALSE,TRUE,Farmers Markets,"(40.707005483, -73.9613650639)"
Staten Island,St George Greenmarket,Hyatt St & St Mark's Place,40.641607,-74.077292,Open year-round,,Farmers Markets and Food Boxes,TRUE,TRUE,FALSE,Farmers Markets,"(40.641607, -74.077292)"
Brooklyn,St Marks Head Start,2017 Beverly Road,40.6451809,-73.9596352,"Open dates: 7/5/2017 to 11/22/2017


Cooking Demonstration: July - Nov only",07/05/2017,Farmers Markets and Food Boxes,TRUE,FALSE,TRUE,Food Boxes,"(40.6451809, -73.9596351999999)"
Manhattan,Staten Island Ferry Whitehall Terminal Greenmarket,4 South St,40.70164259,-74.01186697,Open year-round,,Farmers Markets and Food Boxes,TRUE,TRUE,FALSE,Farmers Markets,"(40.7016425926999, -74.0118669677)"
Bronx,Stevenson Family Health Center,731 White Plains Road,40.820808,-73.859039,Open dates: 7/11/2017 to 11/21/2017,07/11/2017,Farmers Markets and Food Boxes,TRUE,FALSE,FALSE,Food Boxes,"(40.820808, -73.859039)"
Manhattan,Stuyvesant Town Greenmarket,14th St Loop & Ave A,40.73045054,-73.98034091,Market open dates: 5/21/2017 to 11/19/2017,05/21/2017,Farmers Markets and Food Boxes,TRUE,FALSE,FALSE,Farmers Markets,"(40.7304505393, -73.9803409068999)"
Manhattan,Sugar Hill Greenmarket,W 155th St & St Nicholas Ave,40.83090012,-73.94136802,Market open dates: 6/24/2017 to 11/18/2017,06/24/2017,Farmers Markets and Food Boxes,TRUE,FALSE,FALSE,Farmers Markets,"(40.8309001187, -73.9413680213999)"
Queens,Sunnyside Greenmarket,Skillman Ave bet 42nd St & 43rd St,40.74689899,-73.92079851,Open year-round,,Farmers Markets and Food Boxes,TRUE,TRUE,FALSE,Farmers Markets,"(40.7468989934, -73.9207985089)"
Brooklyn,Sunset Park Greenmarket,59th St & 4 Ave,40.64084493,-74.01843209,Market open dates: 7/1/2017 to 11/18/2017,07/01/2017,Farmers Markets and Food Boxes,TRUE,FALSE,TRUE,Farmers Markets,"(40.6408449272, -74.0184320941999)"
Bronx,Taqwa Community Farmers Market,90 W 164th St bet Ogden & Nelson Aves,40.83292449,-73.92938696,Market open dates: 7/8/2017 to 10/28/2017,07/08/2017,Farmers Markets and Food Boxes,TRUE,FALSE,FALSE,Farmers Markets,"(40.8329244943, -73.9293869587999)"
Manhattan,Tompkins Square Greenmarket,E 7th St & Ave A,40.72606217,-73.98353516,Open year-round,,Farmers Markets and Food Boxes,TRUE,TRUE,FALSE,Farmers Markets,"(40.7260621742, -73.9835351597999)"
Manhattan,Tribeca Greenmarket,Greenwich & Chambers Sts,40.7163107,-74.01096775,"Market open dates (Wednesdays): 4/5/2017 to 12/20/2017

Open year-round (Saturdays only)",,Farmers Markets and Food Boxes,TRUE,TRUE,FALSE,Farmers Markets,"(40.7163106993999, -74.0109677454999)"
Manhattan,Tucker Square Greenmarket,66th St & Columbus Ave,40.77360915,-73.98157377,Open year-round,,Farmers Markets and Food Boxes,TRUE,TRUE,FALSE,Farmers Markets,"(40.7736091515999, -73.9815737691999)"
Manhattan,Union Square Greenmarket,E 17th St & Broadway,40.73714078,-73.99033077,Open year-round,,Farmers Markets and Food Boxes,TRUE,TRUE,FALSE,Farmers Markets,"(40.7371407780999, -73.9903307676)"
Manhattan,Uptown Grand Central,125th Street & Park Avenue,40.8051304,-73.9391832,Open year-round,,Farmers Markets and Food Boxes,TRUE,TRUE,FALSE,Food Boxes,"(40.8051304, -73.9391832)"
Manhattan,Urban Garden Center,116th Street & Park Avenue,40.7992468,-73.9430994,Open dates: 11/30/2017 to 6/28/2017,11/30/2017,Farmers Markets and Food Boxes,TRUE,FALSE,FALSE,Food Boxes,"(40.7992468, -73.9430994)"
Brooklyn,Urban Oasis Farmers Market,Clarkson & Troy Aves,40.65624918,-73.93668483,Market open dates: 6/28/2017 to 11/15/2017,06/28/2017,Farmers Markets and Food Boxes,TRUE,FALSE,FALSE,Farmers Markets,"(40.6562491753999, -73.9366848278999)"
Manhattan,Water Street Greenmarket,Water Street & Coenties Slip,40.70327588,-74.01034887,Market open dates: 6/1/2017 to 11/16/2017,06/01/2017,Farmers Markets and Food Boxes,TRUE,FALSE,FALSE,Farmers Markets,"(40.7032758753, -74.0103488668)"
Bronx,Williamsbridge Health Center Farmacy,3011 Boston Rd,40.869727,-73.857372,Market open dates: 6/15/2017 to 11/15/2017,06/15/2017,Farmers Markets and Food Boxes,FALSE,FALSE,FALSE,Farmers Markets,"(40.869727, -73.857372)"
Brooklyn,Woodhull Hospital,Marcus Garvey Blvd & Broadway,40.700254,-73.94124,Market open dates: 7/5/2017 to 11/22/2017,07/05/2017,Farmers Markets and Food Boxes,TRUE,FALSE,FALSE,Farmers Markets,"(40.700254, -73.94124)"
